start=new Date('2022-11-13T00:00:00.000Z').valueOf();
sats=[{"CLASSIFICATION_TYPE":"U","ARG_OF_PERICENTER":"46.7642","EPOCH":"2022-11-12T17:02:44.704032","DECAY_DATE":null,"RA_OF_ASC_NODE":"311.9020","MEAN_MOTION":"15.06420401","EPHEMERIS_TYPE":"0","REV_AT_EPOCH":"15390","MEAN_ANOMALY":"313.3511","TLE_LINE2":"2 45078  53.0544 311.9020 0001966  46.7642 313.3511 15.06420401153902","RCS_SIZE":"LARGE","ECCENTRICITY":"0.00019660","SITE":"AFETR","LAUNCH_DATE":"2020-01-29","GP_ID":"217584869","INCLINATION":"53.0544","OBJECT_TYPE":"PAYLOAD","BSTAR":"0.00053883000000","ELEMENT_SET_NO":"999","COUNTRY_CODE":"US","CENTER_NAME":"EARTH","MEAN_MOTION_DDOT":"0.0000000000000","MEAN_MOTION_DOT":"0.00007758","OBJECT_ID":"2020-006AL","OBJECT_NAME":"STARLINK-1177","FILE":"3652635","APOAPSIS":"548.513","REF_FRAME":"TEME","MEAN_ELEMENT_THEORY":"SGP4","TIME_SYSTEM":"UTC","TLE_LINE1":"1 45078U 20006AL  22316.71023963  .00007758  00000-0  53883-3 0  9994","NORAD_CAT_ID":"45078","PERIAPSIS":"545.790","PERIOD":"95.591","SEMIMAJOR_AXIS":"6925.286"},{"MEAN_MOTION_DDOT":"0.0000000000000","MEAN_MOTION_DOT":"0.00004430","COUNTRY_CODE":"US","CENTER_NAME":"EARTH","FILE":"3652635","OBJECT_ID":"2020-006AM","OBJECT_NAME":"STARLINK-1149","INCLINATION":"53.0551","OBJECT_TYPE":"PAYLOAD","ELEMENT_SET_NO":"999","BSTAR":"0.00031600000000","PERIOD":"95.591","SEMIMAJOR_AXIS":"6925.306","REF_FRAME":"TEME","MEAN_ELEMENT_THEORY":"SGP4","TIME_SYSTEM":"UTC","APOAPSIS":"548.240","NORAD_CAT_ID":"45079","PERIAPSIS":"546.102","TLE_LINE1":"1 45079U 20006AM  22316.68718631  .00004430  00000-0  31600-3 0  9991","MEAN_MOTION":"15.06413879","EPHEMERIS_TYPE":"0","REV_AT_EPOCH":"15390","CLASSIFICATION_TYPE":"U","ARG_OF_PERICENTER":"71.0485","RA_OF_ASC_NODE":"311.9946","DECAY_DATE":null,"EPOCH":"2022-11-12T16:29:32.897184","ECCENTRICITY":"0.00015430","SITE":"AFETR","GP_ID":"217585110","LAUNCH_DATE":"2020-01-29","TLE_LINE2":"2 45079  53.0551 311.9946 0001543  71.0485 289.0671 15.06413879153902","MEAN_ANOMALY":"289.0671","RCS_SIZE":"LARGE"},{"RA_OF_ASC_NODE":"311.9648","EPOCH":"2022-11-12T16:41:31.487712","DECAY_DATE":null,"ARG_OF_PERICENTER":"54.2567","CLASSIFICATION_TYPE":"U","REV_AT_EPOCH":"15391","EPHEMERIS_TYPE":"0","MEAN_MOTION":"15.06410828","RCS_SIZE":"LARGE","TLE_LINE2":"2 45080  53.0560 311.9648 0001803  54.2567 305.8590 15.06410828153915","MEAN_ANOMALY":"305.8590","LAUNCH_DATE":"2020-01-29","GP_ID":"217583369","SITE":"AFETR","ECCENTRICITY":"0.00018030","OBJECT_TYPE":"PAYLOAD","ELEMENT_SET_NO":"999","BSTAR":"0.00021020000000","INCLINATION":"53.0560","FILE":"3652635","OBJECT_NAME":"STARLINK-1153","OBJECT_ID":"2020-006AN","MEAN_MOTION_DOT":"0.00002852","MEAN_MOTION_DDOT":"0.0000000000000","CENTER_NAME":"EARTH","COUNTRY_CODE":"US","PERIAPSIS":"545.932","NORAD_CAT_ID":"45080","TLE_LINE1":"1 45080U 20006AN  22316.69550333  .00002852  00000-0  21020-3 0  9998","TIME_SYSTEM":"UTC","MEAN_ELEMENT_THEORY":"SGP4","REF_FRAME":"TEME","APOAPSIS":"548.429","SEMIMAJOR_AXIS":"6925.315","PERIOD":"95.591"},{"CLASSIFICATION_TYPE":"U","ARG_OF_PERICENTER":"35.5894","EPOCH":"2022-11-12T20:54:55.695744","DECAY_DATE":null,"RA_OF_ASC_NODE":"311.1523","MEAN_MOTION":"15.06415560","EPHEMERIS_TYPE":"0","REV_AT_EPOCH":"15394","MEAN_ANOMALY":"324.5241","TLE_LINE2":"2 45081  53.0544 311.1523 0002195  35.5894 324.5241 15.06415560153944","RCS_SIZE":"LARGE","ECCENTRICITY":"0.00021950","SITE":"AFETR","GP_ID":"217583618","LAUNCH_DATE":"2020-01-29","INCLINATION":"53.0544","OBJECT_TYPE":"PAYLOAD","BSTAR":"0.00082639000000","ELEMENT_SET_NO":"999","COUNTRY_CODE":"US","CENTER_NAME":"EARTH","MEAN_MOTION_DOT":"0.00012054","MEAN_MOTION_DDOT":"0.0000000000000","OBJECT_ID":"2020-006AP","OBJECT_NAME":"STARLINK-1151","FILE":"3652635","APOAPSIS":"548.686","MEAN_ELEMENT_THEORY":"SGP4","REF_FRAME":"TEME","TIME_SYSTEM":"UTC","TLE_LINE1":"1 45081U 20006AP  22316.87147796  .00012054  00000-0  82639-3 0  9992","NORAD_CAT_ID":"45081","PERIAPSIS":"545.646","PERIOD":"95.591","SEMIMAJOR_AXIS":"6925.301"},{"FILE":"3652635","OBJECT_NAME":"STARLINK-1160","OBJECT_ID":"2020-006AQ","MEAN_MOTION_DOT":"0.00013265","MEAN_MOTION_DDOT":"0.0000000000000","COUNTRY_CODE":"US","CENTER_NAME":"EARTH","INCLINATION":"53.0541","OBJECT_TYPE":"PAYLOAD","ELEMENT_SET_NO":"999","BSTAR":"0.00090728000000","PERIOD":"95.591","SEMIMAJOR_AXIS":"6925.290","NORAD_CAT_ID":"45082","PERIAPSIS":"545.747","TLE_LINE1":"1 45082U 20006AQ  22316.72773554  .00013265  00000-0  90728-3 0  9997","MEAN_ELEMENT_THEORY":"SGP4","REF_FRAME":"TEME","TIME_SYSTEM":"UTC","APOAPSIS":"548.563","EPHEMERIS_TYPE":"0","REV_AT_EPOCH":"15391","MEAN_MOTION":"15.06419010","RA_OF_ASC_NODE":"311.8117","EPOCH":"2022-11-12T17:27:56.350656","DECAY_DATE":null,"CLASSIFICATION_TYPE":"U","ARG_OF_PERICENTER":"45.5967","GP_ID":"217584369","LAUNCH_DATE":"2020-01-29","ECCENTRICITY":"0.00020330","SITE":"AFETR","RCS_SIZE":"LARGE","TLE_LINE2":"2 45082  53.0541 311.8117 0002033  45.5967 314.5188 15.06419010153911","MEAN_ANOMALY":"314.5188"},{"ECCENTRICITY":"0.00016020","SITE":"AFETR","GP_ID":"217584610","LAUNCH_DATE":"2020-01-29","MEAN_ANOMALY":"300.6117","TLE_LINE2":"2 45083  53.0542 332.5630 0001602  59.5030 300.6117 15.06399370153611","RCS_SIZE":"LARGE","MEAN_MOTION":"15.06399370","EPHEMERIS_TYPE":"0","REV_AT_EPOCH":"15361","CLASSIFICATION_TYPE":"U","ARG_OF_PERICENTER":"59.5030","DECAY_DATE":null,"EPOCH":"2022-11-12T13:27:46.970784","RA_OF_ASC_NODE":"332.5630","PERIOD":"95.592","SEMIMAJOR_AXIS":"6925.350","APOAPSIS":"548.325","REF_FRAME":"TEME","MEAN_ELEMENT_THEORY":"SGP4","TIME_SYSTEM":"UTC","TLE_LINE1":"1 45083U 20006AR  22316.56096031  .00002538  00000-0  18924-3 0  9997","NORAD_CAT_ID":"45083","PERIAPSIS":"546.106","COUNTRY_CODE":"US","CENTER_NAME":"EARTH","MEAN_MOTION_DOT":"0.00002538","MEAN_MOTION_DDOT":"0.0000000000000","OBJECT_NAME":"STARLINK-1190","OBJECT_ID":"2020-006AR","FILE":"3652635","INCLINATION":"53.0542","BSTAR":"0.00018924000000","OBJECT_TYPE":"PAYLOAD","ELEMENT_SET_NO":"999"},{"CLASSIFICATION_TYPE":"U","ARG_OF_PERICENTER":"49.5621","DECAY_DATE":null,"EPOCH":"2022-11-12T16:12:19.469376","RA_OF_ASC_NODE":"292.0693","MEAN_MOTION":"15.06395953","EPHEMERIS_TYPE":"0","REV_AT_EPOCH":"15419","MEAN_ANOMALY":"310.5553","TLE_LINE2":"2 45084  53.0544 292.0693 0002125  49.5621 310.5553 15.06395953154190","RCS_SIZE":"LARGE","ECCENTRICITY":"0.00021250","SITE":"AFETR","LAUNCH_DATE":"2020-01-29","GP_ID":"217583869","INCLINATION":"53.0544","BSTAR":"0.00015596000000","OBJECT_TYPE":"PAYLOAD","ELEMENT_SET_NO":"999","COUNTRY_CODE":"US","CENTER_NAME":"EARTH","MEAN_MOTION_DDOT":"0.0000000000000","MEAN_MOTION_DOT":"0.00002042","OBJECT_NAME":"STARLINK-1173","OBJECT_ID":"2020-006AS","FILE":"3652635","APOAPSIS":"548.698","MEAN_ELEMENT_THEORY":"SGP4","REF_FRAME":"TEME","TIME_SYSTEM":"UTC","TLE_LINE1":"1 45084U 20006AS  22316.67522534  .00002042  00000-0  15596-3 0  9994","NORAD_CAT_ID":"45084","PERIAPSIS":"545.754","PERIOD":"95.592","SEMIMAJOR_AXIS":"6925.361"},{"REV_AT_EPOCH":"15419","EPHEMERIS_TYPE":"0","MEAN_MOTION":"15.06408438","DECAY_DATE":null,"EPOCH":"2022-11-12T16:07:01.392096","RA_OF_ASC_NODE":"292.0785","ARG_OF_PERICENTER":"53.9606","CLASSIFICATION_TYPE":"U","LAUNCH_DATE":"2020-01-29","GP_ID":"217584119","SITE":"AFETR","ECCENTRICITY":"0.00016990","RCS_SIZE":"LARGE","MEAN_ANOMALY":"306.1540","TLE_LINE2":"2 45085  53.0538 292.0785 0001699  53.9606 306.1540 15.06408438154193","OBJECT_ID":"2020-006AT","OBJECT_NAME":"STARLINK-1179","FILE":"3652635","CENTER_NAME":"EARTH","COUNTRY_CODE":"US","MEAN_MOTION_DDOT":"0.0000000000000","MEAN_MOTION_DOT":"0.00005408","OBJECT_TYPE":"PAYLOAD","BSTAR":"0.00038159000000","ELEMENT_SET_NO":"999","INCLINATION":"53.0538","SEMIMAJOR_AXIS":"6925.323","PERIOD":"95.592","TLE_LINE1":"1 45085U 20006AT  22316.67154389  .00005408  00000-0  38159-3 0  9993","PERIAPSIS":"546.011","NORAD_CAT_ID":"45085","APOAPSIS":"548.364","TIME_SYSTEM":"UTC","MEAN_ELEMENT_THEORY":"SGP4","REF_FRAME":"TEME"},{"REV_AT_EPOCH":"15433","EPHEMERIS_TYPE":"0","MEAN_MOTION":"15.24355526","RA_OF_ASC_NODE":"270.3394","EPOCH":"2022-11-12T06:07:48.888480","DECAY_DATE":null,"ARG_OF_PERICENTER":"98.9832","CLASSIFICATION_TYPE":"U","LAUNCH_DATE":"2020-01-29","GP_ID":"217528292","SITE":"AFETR","ECCENTRICITY":"0.00067260","RCS_SIZE":"LARGE","TLE_LINE2":"2 45086  52.9831 270.3394 0006726  98.9832 261.1925 15.24355526154331","MEAN_ANOMALY":"261.1925","FILE":"3652392","OBJECT_NAME":"STARLINK-1181","OBJECT_ID":"2020-006AU","MEAN_MOTION_DOT":"0.00056373","MEAN_MOTION_DDOT":"0.0000000000000","CENTER_NAME":"EARTH","COUNTRY_CODE":"US","OBJECT_TYPE":"PAYLOAD","BSTAR":"0.00226820000000","ELEMENT_SET_NO":"999","INCLINATION":"52.9831","SEMIMAJOR_AXIS":"6870.858","PERIOD":"94.466","PERIAPSIS":"488.102","NORAD_CAT_ID":"45086","TLE_LINE1":"1 45086U 20006AU  22316.25542695  .00056373  00000-0  22682-2 0  9999","TIME_SYSTEM":"UTC","REF_FRAME":"TEME","MEAN_ELEMENT_THEORY":"SGP4","APOAPSIS":"497.345"},{"CENTER_NAME":"EARTH","COUNTRY_CODE":"US","MEAN_MOTION_DDOT":"0.0000000000000","MEAN_MOTION_DOT":"0.00009895","OBJECT_ID":"2020-006AV","OBJECT_NAME":"STARLINK-1185","FILE":"3652635","ELEMENT_SET_NO":"999","OBJECT_TYPE":"PAYLOAD","BSTAR":"0.00068179000000","INCLINATION":"53.0546","SEMIMAJOR_AXIS":"6925.276","PERIOD":"95.591","APOAPSIS":"548.571","TIME_SYSTEM":"UTC","REF_FRAME":"TEME","MEAN_ELEMENT_THEORY":"SGP4","TLE_LINE1":"1 45087U 20006AV  22316.92218329  .00009895  00000-0  68179-3 0  9997","PERIAPSIS":"545.711","NORAD_CAT_ID":"45087","MEAN_MOTION":"15.06423556","REV_AT_EPOCH":"15423","EPHEMERIS_TYPE":"0","ARG_OF_PERICENTER":"45.2834","CLASSIFICATION_TYPE":"U","DECAY_DATE":null,"EPOCH":"2022-11-12T22:07:56.636256","RA_OF_ASC_NODE":"290.9449","SITE":"AFETR","ECCENTRICITY":"0.00020650","LAUNCH_DATE":"2020-01-29","GP_ID":"217585111","MEAN_ANOMALY":"314.8323","TLE_LINE2":"2 45087  53.0546 290.9449 0002065  45.2834 314.8323 15.06423556154231","RCS_SIZE":"LARGE"}];
